{"type": "FeatureCollection", "features": [ {"type": "Feature", "properties": {"norad_id": 43262, "name": "GAOFEN-1 04", "group": "resource", "lat": -73.84950282817486, "lon": 69.0018933806067, "alt_km": 648.4972382338174, "timestamp": "2025-12-07T18:50:16.381957+00:00", "meta": {"OBJECT_NAME": "GAOFEN-1 04", "OBJECT_ID": "2018-031D", "EPOCH": "2025-12-07T06:10:09.775776", "MEAN_MOTION": 14.76432951, "ECCENTRICITY": 0.00011957, "INCLINATION": 98.0816, "RA_OF_ASC_NODE": 39.0902, "ARG_OF_PERICENTER": 60.1488, "MEAN_ANOMALY": 299.9841, "EPHEMERIS_TYPE": 0, "CLASSIFICATION_TYPE": "U", "NORAD_CAT_ID": 43262, "ELEMENT_SET_NO": 999, "REV_AT_EPOCH": 41436, "BSTAR": 0.00027572705, "MEAN_MOTION_DOT": 1.866e-05, "MEAN_MOTION_DDOT": 0}, "tle": {"line1": "1 43262U 18031D   25341.25705759  .00001866  00000+0  27573-3 0  9992", "line2": "2 43262  98.0816  39.0902 0001195  60.1488 299.9841 14.76432951414369"}}, "geometry": {"type": "Point", "coordinates": [69.0018933806067, -73.84950282817486]}}, {"type": "Feature", "properties": {"norad_id": 43437, "name": "SENTINEL-3B", "group": "resource", "lat": -73.48445452812703, "lon": -163.75769359565706, "alt_km": 810.8699975263416, "timestamp": "2025-12-07T18:50:16.381967+00:00", "meta": {"OBJECT_NAME": "SENTINEL-3B", "OBJECT_ID": "2018-039A", "EPOCH": "2025-12-07T04:10:39.137376", "MEAN_MOTION": 14.26739546, "ECCENTRICITY": 0.000151, "INCLINATION": 98.6272, "RA_OF_ASC_NODE": 46.4388, "ARG_OF_PERICENTER": 108.2092, "MEAN_ANOMALY": 251.9253, "EPHEMERIS_TYPE": 0, "CLASSIFICATION_TYPE": "U", "NORAD_CAT_ID": 43437, "ELEMENT_SET_NO": 999, "REV_AT_EPOCH": 39674, "BSTAR": 0.00013669236, "MEAN_MOTION_DOT": 2.87e-06, "MEAN_MOTION_DDOT": 0}, "tle": {"line1": "1 43437U 18039A   25341.17406409  .00000287  00000+0  13669-3 0  9992", "line2": "2 43437  98.6272  46.4388 0001510 108.2092 251.9253 14.26739546396742"}}, "geometry": {"type": "Point", "coordinates": [-163.75769359565706, -73.48445452812703]}}, {"type": "Feature", "properties": {"norad_id": 43461, "name": "GAOFEN-5 01", "group": "resource", "lat": 5.113659467128683, "lon": -56.094785246514746, "alt_km": 693.2300778589279, "timestamp": "2025-12-07T18:50:16.381977+00:00", "meta": {"OBJECT_NAME": "GAOFEN-5 01", "OBJECT_ID": "2018-043A", "EPOCH": "2025-12-07T04:00:54.364032", "MEAN_MOTION": 14.60400345, "ECCENTRICITY": 0.00013326, "INCLINATION": 98.4317, "RA_OF_ASC_NODE": 304.0375, "ARG_OF_PERICENTER": 359.9517, "MEAN_ANOMALY": 0.1682, "EPHEMERIS_TYPE": 0, "CLASSIFICATION_TYPE": "U", "NORAD_CAT_ID": 43461, "ELEMENT_SET_NO": 999, "REV_AT_EPOCH": 40366, "BSTAR": 0.00020515398, "MEAN_MOTION_DOT": 9.44e-06, "MEAN_MOTION_DDOT": 0}, "tle": {"line1": "1 43461U 18043A   25341.16729588  .00000944  00000+0  20515-3 0  9997", "line2": "2 43461  98.4317 304.0375 0001332 359.9517   0.1682 14.60400345403665"}}, "geometry": {"type": "Point", "coordinates": [-56.094785246514746, 5.113659467128683]}}, {"type": "Feature", "properties": {"norad_id": 43484, "name": "GAOFEN-6", "group": "resource", "lat": 71.55079760201399, "lon": 21.944685260916337, "alt_km": 624.0314111893895, "timestamp": "2025-12-07T18:50:16.381987+00:00", "meta": {"OBJECT_NAME": "GAOFEN-6", "OBJECT_ID": "2018-048A", "EPOCH": "2025-12-07T07:07:23.780928", "MEAN_MOTION": 14.7655147, "ECCENTRICITY": 0.00132956, "INCLINATION": 97.8039, "RA_OF_ASC_NODE": 45.7464, "ARG_OF_PERICENTER": 79.8131, "MEAN_ANOMALY": 280.4578, "EPHEMERIS_TYPE": 0, "CLASSIFICATION_TYPE": "U", "NORAD_CAT_ID": 43484, "ELEMENT_SET_NO": 999, "REV_AT_EPOCH": 40507, "BSTAR": 0.00023652236, "MEAN_MOTION_DOT": 1.602e-05, "MEAN_MOTION_DDOT": 0}, "tle": {"line1": "1 43484U 18048A   25341.29680302  .00001602  00000+0  23652-3 0  9998", "line2": "2 43484  97.8039  45.7464 0013295  79.8131 280.4578 14.76551470405070"}}, "geometry": {"type": "Point", "coordinates": [21.944685260916337, 71.55079760201399]}}, {"type": "Feature", "properties": {"norad_id": 43585, "name": "GAOFEN-11 01", "group": "resource", "lat": 27.592620580558155, "lon": 40.99649243649078, "alt_km": 416.6304642451014, "timestamp": "2025-12-07T18:50:16.381997+00:00", "meta": {"OBJECT_NAME": "GAOFEN-11 01", "OBJECT_ID": "2018-063A", "EPOCH": "2025-12-07T06:18:53.971488", "MEAN_MOTION": 15.48994439, "ECCENTRICITY": 0.00046537, "INCLINATION": 97.1563, "RA_OF_ASC_NODE": 44.2442, "ARG_OF_PERICENTER": 337.892, "MEAN_ANOMALY": 22.213, "EPHEMERIS_TYPE": 0, "CLASSIFICATION_TYPE": "U", "NORAD_CAT_ID": 43585, "ELEMENT_SET_NO": 999, "REV_AT_EPOCH": 41057, "BSTAR": 0.00039055421, "MEAN_MOTION_DOT": 0.00021073, "MEAN_MOTION_DDOT": 0}, "tle": {"line1": "1 43585U 18063A   25341.26312467  .00021073  00000+0  39055-3 0  9996", "line2": "2 43585  97.1563  44.2442 0004653 337.8920  22.2130 15.48994439410571"}}, "geometry": {"type": "Point", "coordinates": [40.99649243649078, 27.592620580558155]}}, {"type": "Feature", "properties": {"norad_id": 43613, "name": "ICESAT-2", "group": "resource", "lat": 43.58373522407905, "lon": 61.31032893683873, "alt_km": 476.49745474978863, "timestamp": "2025-12-07T18:50:16.382007+00:00", "meta": {"OBJECT_NAME": "ICESAT-2", "OBJECT_ID": "2018-070A", "EPOCH": "2025-12-07T05:40:15.182112", "MEAN_MOTION": 15.28194413, "ECCENTRICITY": 0.00018504, "INCLINATION": 92.0049, "RA_OF_ASC_NODE": 239.2517, "ARG_OF_PERICENTER": 161.1246, "MEAN_ANOMALY": 199.0072, "EPHEMERIS_TYPE": 0, "CLASSIFICATION_TYPE": "U", "NORAD_CAT_ID": 43613, "ELEMENT_SET_NO": 999, "REV_AT_EPOCH": 40314, "BSTAR": 0.00066955961, "MEAN_MOTION_DOT": 0.00018409, "MEAN_MOTION_DDOT": 0}, "tle": {"line1": "1 43613U 18070A   25341.23628683  .00018409  00000+0  66956-3 0  9992", "line2": "2 43613  92.0049 239.2517 0001850 161.1246 199.0072 15.28194413403145"}}, "geometry": {"type": "Point", "coordinates": [61.31032893683873, 43.58373522407905]}}, {"type": "Feature", "properties": {"norad_id": 43719, "name": "HYSIS", "group": "resource", "lat": 69.8979577416696, "lon": 22.158245116910628, "alt_km": 625.8229928242908, "timestamp": "2025-12-07T18:50:16.382016+00:00", "meta": {"OBJECT_NAME": "HYSIS", "OBJECT_ID": "2018-096A", "EPOCH": "2025-12-07T05:31:22.259136", "MEAN_MOTION": 14.78622733, "ECCENTRICITY": 0.00015477, "INCLINATION": 98.0102, "RA_OF_ASC_NODE": 44.2349, "ARG_OF_PERICENTER": 63.2214, "MEAN_ANOMALY": 296.9156, "EPHEMERIS_TYPE": 0, "CLASSIFICATION_TYPE": "U", "NORAD_CAT_ID": 43719, "ELEMENT_SET_NO": 999, "REV_AT_EPOCH": 37905, "BSTAR": 0.00034983319, "MEAN_MOTION_DOT": 2.51e-05, "MEAN_MOTION_DDOT": 0}, "tle": {"line1": "1 43719U 18096A   25341.23011874  .00002510  00000+0  34983-3 0  9996", "line2": "2 43719  98.0102  44.2349 0001547  63.2214 296.9156 14.78622733379052"}}, "geometry": {"type": "Point", "coordinates": [22.158245116910628, 69.8979577416696]}}, {"type": "Feature", "properties": {"norad_id": 43783, "name": "KAZSTSAT", "group": "resource", "lat": -60.12971361557634, "lon": 30.362235408853756, "alt_km": 573.4206311772941, "timestamp": "2025-12-07T18:50:16.382027+00:00", "meta": {"OBJECT_NAME": "KAZSTSAT", "OBJECT_ID": "2018-099AB", "EPOCH": "2025-12-07T01:29:25.040832", "MEAN_MOTION": 14.99325399, "ECCENTRICITY": 0.00062491, "INCLINATION": 97.4553, "RA_OF_ASC_NODE": 16.4911, "ARG_OF_PERICENTER": 352.8314, "MEAN_ANOMALY": 7.2819, "EPHEMERIS_TYPE": 0, "CLASSIFICATION_TYPE": "U", "NORAD_CAT_ID": 43783, "ELEMENT_SET_NO": 999, "REV_AT_EPOCH": 38251, "BSTAR": 0.0002576558, "MEAN_MOTION_DOT": 3.093e-05, "MEAN_MOTION_DDOT": 0}, "tle": {"line1": "1 43783U 18099AB  25341.06209538  .00003093  00000+0  25766-3 0  9993", "line2": "2 43783  97.4553  16.4911 0006249 352.8314   7.2819 14.99325399382519"}}, "geometry": {"type": "Point", "coordinates": [30.362235408853756, -60.12971361557634]}}, {"type": "Feature", "properties": {"norad_id": 43831, "name": "SAUDISAT 5A", "group": "resource", "lat": -63.21154738959759, "lon": -152.71110522128666, "alt_km": 503.54775956704725, "timestamp": "2025-12-07T18:50:16.382037+00:00", "meta": {"OBJECT_NAME": "SAUDISAT 5A", "OBJECT_ID": "2018-102A", "EPOCH": "2025-12-07T06:45:08.754912", "MEAN_MOTION": 15.25556096, "ECCENTRICITY": 0.00118188, "INCLINATION": 97.3357, "RA_OF_ASC_NODE": 41.5782, "ARG_OF_PERICENTER": 92.8875, "MEAN_ANOMALY": 267.3716, "EPHEMERIS_TYPE": 0, "CLASSIFICATION_TYPE": "U", "NORAD_CAT_ID": 43831, "ELEMENT_SET_NO": 999, "REV_AT_EPOCH": 38639, "BSTAR": 0.000374328, "MEAN_MOTION_DOT": 9.448e-05, "MEAN_MOTION_DDOT": 0}, "tle": {"line1": "1 43831U 18102A   25341.28135133  .00009448  00000+0  37433-3 0  9999", "line2": "2 43831  97.3357  41.5782 0011818  92.8875 267.3716 15.25556096386395"}}, "geometry": {"type": "Point", "coordinates": [-152.71110522128666, -63.21154738959759]}}, {"type": "Feature", "properties": {"norad_id": 43833, "name": "SAUDISAT 5B", "group": "resource", "lat": -68.84083666472667, "lon": 64.26934410220005, "alt_km": 503.5625975354751, "timestamp": "2025-12-07T18:50:16.382046+00:00", "meta": {"OBJECT_NAME": "SAUDISAT 5B", "OBJECT_ID": "2018-102C", "EPOCH": "2025-12-07T06:33:16.002432", "MEAN_MOTION": 15.25911347, "ECCENTRICITY": 0.00125155, "INCLINATION": 97.3452, "RA_OF_ASC_NODE": 44.2989, "ARG_OF_PERICENTER": 95.4171, "MEAN_ANOMALY": 264.8495, "EPHEMERIS_TYPE": 0, "CLASSIFICATION_TYPE": "U", "NORAD_CAT_ID": 43833, "ELEMENT_SET_NO": 999, "REV_AT_EPOCH": 38650, "BSTAR": 0.00038147113, "MEAN_MOTION_DOT": 9.736e-05, "MEAN_MOTION_DDOT": 0}, "tle": {"line1": "1 43833U 18102C   25341.27310188  .00009736  00000+0  38147-3 0  9998", "line2": "2 43833  97.3452  44.2989 0012515  95.4171 264.8495 15.25911347386508"}}, "geometry": {"type": "Point", "coordinates": [64.26934410220005, -68.84083666472667]}}]}